{
    "CCSDS_OMM_VERS": "3.0",
    "COMMENT": "GENERATED VIA SPACE-TRACK.ORG API",
    "CREATION_DATE": "2025-05-23T06:56:36",
    "ORIGINATOR": "18 SPCS",
    "OBJECT_NAME": "COSMOS 2492 (GLONASS)",
    "OBJECT_ID": "2014-012A",
    "CENTER_NAME": "EARTH",
    "REF_FRAME": "TEME",
    "TIME_SYSTEM": "UTC",
    "MEAN_ELEMENT_THEORY": "SGP4",
    "EPOCH": "2025-05-22T21:56:31.218144",
    "MEAN_MOTION": "2.13103130",
    "ECCENTRICITY": "0.00113460",
    "INCLINATION": "65.5180",
    "RA_OF_ASC_NODE": "327.1716",
    "ARG_OF_PERICENTER": "329.4405",
    "MEAN_ANOMALY": "30.5135",
    "EPHEMERIS_TYPE": "0",
    "CLASSIFICATION_TYPE": "U",
    "NORAD_CAT_ID": "39620",
    "ELEMENT_SET_NO": "999",
    "REV_AT_EPOCH": "8692",
    "BSTAR": "0.00000000000000",
    "MEAN_MOTION_DOT": "-0.00000025",
    "MEAN_MOTION_DDOT": "0.0000000000000",
    "SEMIMAJOR_AXIS": "25507.934",
    "PERIOD": "675.729",
    "APOAPSIS": "19158.741",
    "PERIAPSIS": "19100.858",
    "OBJECT_TYPE": "PAYLOAD",
    "RCS_SIZE": "LARGE",
    "COUNTRY_CODE": "CIS",
    "LAUNCH_DATE": "2014-03-23",
    "SITE": "PKMTR",
    "DECAY_DATE": null,
    "FILE": "4736781",
    "GP_ID": "288170578",
    "TLE_LINE0": "0 COSMOS 2492 (GLONASS)",
    "TLE_LINE1": "1 39620U 14012A   25142.91425021 -.00000025  00000-0  00000+0 0  9993",
    "TLE_LINE2": "2 39620  65.5180 327.1716 0011346 329.4405  30.5135  2.13103130 86922"
}